{
  "type": "FeatureCollection",
  "features": [
    {
      "type": "Feature",
      "properties": {
        "norad_id": 34681,
        "name": "COSMOS 2251 DEB",
        "group": "cosmos-2251-debris",
        "lat": 68.60872841228074,
        "lon": -34.30308382694146,
        "alt_km": 615.0959998080107,
        "timestamp": "2025-12-18T13:51:50.080928+00:00",
        "meta_object_name": "COSMOS 2251 DEB",
        "meta_object_id": "1993-036YB",
        "meta_epoch": "2025-12-18T06:06:40.538304",
        "meta_mean_motion": 14.833449,
        "meta_eccentricity": 0.0025619,
        "meta_inclination": 74.0632,
        "meta_ra_of_asc_node": 279.4939,
        "meta_arg_of_pericenter": 335.383,
        "meta_mean_anomaly": 175.6516,
        "meta_ephemeris_type": 0,
        "meta_classification_type": "U",
        "meta_norad_cat_id": 34681,
        "meta_element_set_no": 999,
        "meta_rev_at_epoch": 89352,
        "meta_bstar": 0.0012979491,
        "meta_mean_motion_dot": 0.00010681,
        "meta_mean_motion_ddot": 0,
        "tle_line1": "1 34681U 93036YB  25352.25463586  .00010681  00000+0  12979-2 0  9994",
        "tle_line2": "2 34681  74.0632 279.4939 0025619 335.3830 175.6516 14.83344900893521"
      },
      "geometry": {
        "type": "Point",
        "coordinates": [
          -34.30308382694146,
          68.60872841228074
        ]
      }
    },
    {
      "type": "Feature",
      "properties": {
        "norad_id": 34682,
        "name": "COSMOS 2251 DEB",
        "group": "cosmos-2251-debris",
        "lat": 35.783383807776346,
        "lon": 83.77399129858779,
        "alt_km": 706.2661332932075,
        "timestamp": "2025-12-18T13:51:50.080939+00:00",
        "meta_object_name": "COSMOS 2251 DEB",
        "meta_object_id": "1993-036YC",
        "meta_epoch": "2025-12-18T05:36:23.765760",
        "meta_mean_motion": 14.58934352,
        "meta_eccentricity": 0.00180841,
        "meta_inclination": 74.0402,
        "meta_ra_of_asc_node": 72.5251,
        "meta_arg_of_pericenter": 205.012,
        "meta_mean_anomaly": 186.2918,
        "meta_ephemeris_type": 0,
        "meta_classification_type": "U",
        "meta_norad_cat_id": 34682,
        "meta_element_set_no": 999,
        "meta_rev_at_epoch": 88766,
        "meta_bstar": 0.00060600452,
        "meta_mean_motion_dot": 2.819e-05,
        "meta_mean_motion_ddot": 0,
        "tle_line1": "1 34682U 93036YC  25352.23360840  .00002819  00000+0  60600-3 0  9991",
        "tle_line2": "2 34682  74.0402  72.5251 0018084 205.0120 186.2918 14.58934352887669"
      },
      "geometry": {
        "type": "Point",
        "coordinates": [
          83.77399129858779,
          35.783383807776346
        ]
      }
    },
    {
      "type": "Feature",
      "properties": {
        "norad_id": 34683,
        "name": "COSMOS 2251 DEB",
        "group": "cosmos-2251-debris",
        "lat": -49.2111034458134,
        "lon": 61.658933029717396,
        "alt_km": 689.7107073886136,
        "timestamp": "2025-12-18T13:51:50.080949+00:00",
        "meta_object_name": "COSMOS 2251 DEB",
        "meta_object_id": "1993-036YD",
        "meta_epoch": "2025-12-18T06:02:44.044224",
        "meta_mean_motion": 14.64558654,
        "meta_eccentricity": 0.0017861,
        "meta_inclination": 74.0299,
        "meta_ra_of_asc_node": 81.6688,
        "meta_arg_of_pericenter": 196.8208,
        "meta_mean_anomaly": 194.2528,
        "meta_ephemeris_type": 0,
        "meta_classification_type": "U",
        "meta_norad_cat_id": 34683,
        "meta_element_set_no": 999,
        "meta_rev_at_epoch": 88429,
        "meta_bstar": 0.0010103676,
        "meta_mean_motion_dot": 5.347e-05,
        "meta_mean_motion_ddot": 0,
        "tle_line1": "1 34683U 93036YD  25352.25189866  .00005347  00000+0  10104-2 0  9993",
        "tle_line2": "2 34683  74.0299  81.6688 0017861 196.8208 194.2528 14.64558654884291"
      },
      "geometry": {
        "type": "Point",
        "coordinates": [
          61.658933029717396,
          -49.2111034458134
        ]
      }
    },
    {
      "type": "Feature",
      "properties": {
        "norad_id": 34685,
        "name": "COSMOS 2251 DEB",
        "group": "cosmos-2251-debris",
        "lat": -45.74826214516596,
        "lon": 120.58621292170064,
        "alt_km": 704.027784374669,
        "timestamp": "2025-12-18T13:51:50.080959+00:00",
        "meta_object_name": "COSMOS 2251 DEB",
        "meta_object_id": "1993-036YF",
        "meta_epoch": "2025-12-18T04:27:13.631616",
        "meta_mean_motion": 14.57555214,
        "meta_eccentricity": 0.00142535,
        "meta_inclination": 74.0286,
        "meta_ra_of_asc_node": 138.4275,
        "meta_arg_of_pericenter": 242.6439,
        "meta_mean_anomaly": 172.5953,
        "meta_ephemeris_type": 0,
        "meta_classification_type": "U",
        "meta_norad_cat_id": 34685,
        "meta_element_set_no": 999,
        "meta_rev_at_epoch": 88611,
        "meta_bstar": 0.00084282437,
        "meta_mean_motion_dot": 3.813e-05,
        "meta_mean_motion_ddot": 0,
        "tle_line1": "1 34685U 93036YF  25352.18557444  .00003813  00000+0  84282-3 0  9993",
        "tle_line2": "2 34685  74.0286 138.4275 0014253 242.6439 172.5953 14.57555214886115"
      },
      "geometry": {
        "type": "Point",
        "coordinates": [
          120.58621292170064,
          -45.74826214516596
        ]
      }
    },
    {
      "type": "Feature",
      "properties": {
        "norad_id": 34689,
        "name": "COSMOS 2251 DEB",
        "group": "cosmos-2251-debris",
        "lat": 56.949413559177614,
        "lon": 7.242030539114233,
        "alt_km": 1028.518492600082,
        "timestamp": "2025-12-18T13:51:50.080969+00:00",
        "meta_object_name": "COSMOS 2251 DEB",
        "meta_object_id": "1993-036YK",
        "meta_epoch": "2025-12-15T15:20:16.539648",
        "meta_mean_motion": 14.04491905,
        "meta_eccentricity": 0.02275051,
        "meta_inclination": 74.0901,
        "meta_ra_of_asc_node": 218.3502,
        "meta_arg_of_pericenter": 286.6099,
        "meta_mean_anomaly": 101.262,
        "meta_ephemeris_type": 0,
        "meta_classification_type": "U",
        "meta_norad_cat_id": 34689,
        "meta_element_set_no": 999,
        "meta_rev_at_epoch": 84382,
        "meta_bstar": 0.0020174062,
        "meta_mean_motion_dot": 4.031e-05,
        "meta_mean_motion_ddot": 0,
        "tle_line1": "1 34689U 93036YK  25349.63908032  .00004031  00000+0  20174-2 0  9998",
        "tle_line2": "2 34689  74.0901 218.3502 0227505 286.6099 101.2620 14.04491905843829"
      },
      "geometry": {
        "type": "Point",
        "coordinates": [
          7.242030539114233,
          56.949413559177614
        ]
      }
    },
    {
      "type": "Feature",
      "properties": {
        "norad_id": 34721,
        "name": "COSMOS 2251 DEB",
        "group": "cosmos-2251-debris",
        "lat": -6.930361727577663,
        "lon": -45.88695501835593,
        "alt_km": 929.6983165163083,
        "timestamp": "2025-12-18T13:51:50.080979+00:00",
        "meta_object_name": "COSMOS 2251 DEB",
        "meta_object_id": "1993-036YP",
        "meta_epoch": "2025-12-16T09:23:35.751264",
        "meta_mean_motion": 13.96869832,
        "meta_eccentricity": 0.02234243,
        "meta_inclination": 73.923,
        "meta_ra_of_asc_node": 319.9132,
        "meta_arg_of_pericenter": 258.2136,
        "meta_mean_anomaly": 262.1516,
        "meta_ephemeris_type": 0,
        "meta_classification_type": "U",
        "meta_norad_cat_id": 34721,
        "meta_element_set_no": 999,
        "meta_rev_at_epoch": 85200,
        "meta_bstar": 0.00097212088,
        "meta_mean_motion_dot": 1.644e-05,
        "meta_mean_motion_ddot": 0,
        "tle_line1": "1 34721U 93036YP  25350.39138601  .00001644  00000+0  97212-3 0  9992",
        "tle_line2": "2 34721  73.9230 319.9132 0223424 258.2136 262.1516 13.96869832852008"
      },
      "geometry": {
        "type": "Point",
        "coordinates": [
          -45.88695501835593,
          -6.930361727577663
        ]
      }
    },
    {
      "type": "Feature",
      "properties": {
        "norad_id": 34722,
        "name": "COSMOS 2251 DEB",
        "group": "cosmos-2251-debris",
        "lat": 8.73791136225194,
        "lon": 143.10652538616955,
        "alt_km": 829.8735188749124,
        "timestamp": "2025-12-18T13:51:50.080990+00:00",
        "meta_object_name": "COSMOS 2251 DEB",
        "meta_object_id": "1993-036YQ",
        "meta_epoch": "2025-12-17T08:51:47.074176",
        "meta_mean_motion": 14.11948986,
        "meta_eccentricity": 0.01669112,
        "meta_inclination": 73.8722,
        "meta_ra_of_asc_node": 327.8097,
        "meta_arg_of_pericenter": 252.5525,
        "meta_mean_anomaly": 260.3373,
        "meta_ephemeris_type": 0,
        "meta_classification_type": "U",
        "meta_norad_cat_id": 34722,
        "meta_element_set_no": 999,
        "meta_rev_at_epoch": 86310,
        "meta_bstar": 0.00067650923,
        "meta_mean_motion_dot": 1.384e-05,
        "meta_mean_motion_ddot": 0,
        "tle_line1": "1 34722U 93036YQ  25351.36929484  .00001384  00000+0  67651-3 0  9993",
        "tle_line2": "2 34722  73.8722 327.8097 0166911 252.5525 260.3373 14.11948986863108"
      },
      "geometry": {
        "type": "Point",
        "coordinates": [
          143.10652538616955,
          8.73791136225194
        ]
      }
    }
  ]
}